[{"OBJECT_NAME":"STARLINK-30109","OBJECT_ID":"2023-056N","EPOCH":"2026-01-04T05:18:18.821088","MEAN_MOTION":15.02524297,"ECCENTRICITY":0.00011206,"INCLINATION":43.0036,"RA_OF_ASC_NODE":200.7264,"ARG_OF_PERICENTER":270.8241,"MEAN_ANOMALY":89.2473,"EPHEMERIS_TYPE":0,"CLASSIFICATION_TYPE":"U","NORAD_CAT_ID":56298,"ELEMENT_SET_NO":999,"REV_AT_EPOCH":15038,"BSTAR":0.0001148891,"MEAN_MOTION_DOT":1.348e-5,"MEAN_MOTION_DDOT":0},{"OBJECT_NAME":"STARLINK-30108","OBJECT_ID":"2023-056P","EPOCH":"2026-01-03T20:32:15.649152","MEAN_MOTION":15.02542919,"ECCENTRICITY":0.00011941,"INCLINATION":43.0033,"RA_OF_ASC_NODE":190.1468,"ARG_OF_PERICENTER":266.2261,"MEAN_ANOMALY":93.8445,"EPHEMERIS_TYPE":0,"CLASSIFICATION_TYPE":"U","NORAD_CAT_ID":56299,"ELEMENT_SET_NO":999,"REV_AT_EPOCH":15047,"BSTAR":0.00011375744,"MEAN_MOTION_DOT":1.334e-5,"MEAN_MOTION_DDOT":0},{"OBJECT_NAME":"STARLINK-30104","OBJECT_ID":"2023-056Q","EPOCH":"2026-01-04T05:46:55.625376","MEAN_MOTION":15.02536062,"ECCENTRICITY":8.989e-5,"INCLINATION":43.0028,"RA_OF_ASC_NODE":200.0975,"ARG_OF_PERICENTER":273.8415,"MEAN_ANOMALY":86.2325,"EPHEMERIS_TYPE":0,"CLASSIFICATION_TYPE":"U","NORAD_CAT_ID":56300,"ELEMENT_SET_NO":999,"REV_AT_EPOCH":15039,"BSTAR":2.7891702e-5,"MEAN_MOTION_DOT":1.73e-6,"MEAN_MOTION_DDOT":0},{"OBJECT_NAME":"STARLINK-30101","OBJECT_ID":"2023-056R","EPOCH":"2026-01-03T22:31:26.035392","MEAN_MOTION":15.02536144,"ECCENTRICITY":0.0001146,"INCLINATION":43.0032,"RA_OF_ASC_NODE":202.1093,"ARG_OF_PERICENTER":267.6111,"MEAN_ANOMALY":92.46,"EPHEMERIS_TYPE":0,"CLASSIFICATION_TYPE":"U","NORAD_CAT_ID":56301,"ELEMENT_SET_NO":999,"REV_AT_EPOCH":15034,"BSTAR":0.00011967,"MEAN_MOTION_DOT":1.413e-5,"MEAN_MOTION_DDOT":0},{"OBJECT_NAME":"STARLINK-30111","OBJECT_ID":"2023-056S","EPOCH":"2026-01-03T22:21:49.380192","MEAN_MOTION":15.02540865,"ECCENTRICITY":0.0001104,"INCLINATION":43.003,"RA_OF_ASC_NODE":201.9932,"ARG_OF_PERICENTER":265.6462,"MEAN_ANOMALY":94.4254,"EPHEMERIS_TYPE":0,"CLASSIFICATION_TYPE":"U","NORAD_CAT_ID":56302,"ELEMENT_SET_NO":999,"REV_AT_EPOCH":15034,"BSTAR":7.381e-5,"MEAN_MOTION_DOT":7.94e-6,"MEAN_MOTION_DDOT":0},{"OBJECT_NAME":"STARLINK-30099","OBJECT_ID":"2023-056U","EPOCH":"2026-01-03T22:17:03.956064","MEAN_MOTION":15.02531409,"ECCENTRICITY":0.0001449,"INCLINATION":43.0013,"RA_OF_ASC_NODE":201.9572,"ARG_OF_PERICENTER":263.787,"MEAN_ANOMALY":96.2807,"EPHEMERIS_TYPE":0,"CLASSIFICATION_TYPE":"U","NORAD_CAT_ID":56304,"ELEMENT_SET_NO":999,"REV_AT_EPOCH":15034,"BSTAR":0.00039373,"MEAN_MOTION_DOT":5.118e-5,"MEAN_MOTION_DDOT":0},{"OBJECT_NAME":"STARLINK-30094","OBJECT_ID":"2023-056V","EPOCH":"2026-01-04T06:10:52.890240","MEAN_MOTION":15.02535084,"ECCENTRICITY":9.798e-5,"INCLINATION":43.0054,"RA_OF_ASC_NODE":200.1156,"ARG_OF_PERICENTER":269.8968,"MEAN_ANOMALY":90.1762,"EPHEMERIS_TYPE":0,"CLASSIFICATION_TYPE":"U","NORAD_CAT_ID":56305,"ELEMENT_SET_NO":999,"REV_AT_EPOCH":15039,"BSTAR":4.0433666e-5,"MEAN_MOTION_DOT":3.43e-6,"MEAN_MOTION_DDOT":0},{"OBJECT_NAME":"STARLINK-30112","OBJECT_ID":"2023-056W","EPOCH":"2026-01-03T22:26:37.416192","MEAN_MOTION":15.02533686,"ECCENTRICITY":0.0001451,"INCLINATION":43.003,"RA_OF_ASC_NODE":202.0168,"ARG_OF_PERICENTER":226.9681,"MEAN_ANOMALY":133.104,"EPHEMERIS_TYPE":0,"CLASSIFICATION_TYPE":"U","NORAD_CAT_ID":56306,"ELEMENT_SET_NO":999,"REV_AT_EPOCH":15034,"BSTAR":-0.00020989,"MEAN_MOTION_DOT":-3.038e-5,"MEAN_MOTION_DDOT":0},{"OBJECT_NAME":"STARLINK-6038","OBJECT_ID":"2023-058A","EPOCH":"2026-01-04T06:26:42.365760","MEAN_MOTION":15.05645744,"ECCENTRICITY":0.00020381,"INCLINATION":97.605,"RA_OF_ASC_NODE":7.7182,"ARG_OF_PERICENTER":86.5132,"MEAN_ANOMALY":273.6328,"EPHEMERIS_TYPE":0,"CLASSIFICATION_TYPE":"U","NORAD_CAT_ID":56317,"ELEMENT_SET_NO":999,"REV_AT_EPOCH":14815,"BSTAR":2.6392652e-5,"MEAN_MOTION_DOT":3.2e-6,"MEAN_MOTION_DDOT":0},{"OBJECT_NAME":"STARLINK-5954","OBJECT_ID":"2023-058B","EPOCH":"2026-01-04T05:46:50.347200","MEAN_MOTION":15.05645306,"ECCENTRICITY":0.00017633,"INCLINATION":97.6043,"RA_OF_ASC_NODE":7.7537,"ARG_OF_PERICENTER":84.0253,"MEAN_ANOMALY":276.1174,"EPHEMERIS_TYPE":0,"CLASSIFICATION_TYPE":"U","NORAD_CAT_ID":56318,"ELEMENT_SET_NO":999,"REV_AT_EPOCH":14815,"BSTAR":2.132035e-6,"MEAN_MOTION_DOT":-3.0e-7,"MEAN_MOTION_DDOT":0},{"OBJECT_NAME":"STARLINK-6039","OBJECT_ID":"2023-058C","EPOCH":"2026-01-04T06:50:52.499040","MEAN_MOTION":15.01260424,"ECCENTRICITY":0.00014915,"INCLINATION":97.6067,"RA_OF_ASC_NODE":7.0936,"ARG_OF_PERICENTER":91.7307,"MEAN_ANOMALY":268.4089,"EPHEMERIS_TYPE":0,"CLASSIFICATION_TYPE":"U","NORAD_CAT_ID":56319,"ELEMENT_SET_NO":999,"REV_AT_EPOCH":14811,"BSTAR":3.2471325e-5,"MEAN_MOTION_DOT":3.59e-6,"MEAN_MOTION_DDOT":0},{"OBJECT_NAME":"STARLINK-5988","OBJECT_ID":"2023-058D","EPOCH":"2026-01-03T22:59:19.652640","MEAN_MOTION":15.01272885,"ECCENTRICITY":0.0001711,"INCLINATION":97.6068,"RA_OF_ASC_NODE":6.7532,"ARG_OF_PERICENTER":82.3908,"MEAN_ANOMALY":277.7511,"EPHEMERIS_TYPE":0,"CLASSIFICATION_TYPE":"U","NORAD_CAT_ID":56320,"ELEMENT_SET_NO":999,"REV_AT_EPOCH":14807,"BSTAR":-0.00017744,"MEAN_MOTION_DOT":-2.337e-5,"MEAN_MOTION_DDOT":0},{"OBJECT_NAME":"STARLINK-5876","OBJECT_ID":"2023-058E","EPOCH":"2026-01-04T06:02:47.217696","MEAN_MOTION":15.05597857,"ECCENTRICITY":0.00026123,"INCLINATION":97.6018,"RA_OF_ASC_NODE":7.7365,"ARG_OF_PERICENTER":92.9859,"MEAN_ANOMALY":267.1667,"EPHEMERIS_TYPE":0,"CLASSIFICATION_TYPE":"U","NORAD_CAT_ID":56321,"ELEMENT_SET_NO":999,"REV_AT_EPOCH":14815,"BSTAR":-0.0081085251,"MEAN_MOTION_DOT":-0.0011504,"MEAN_MOTION_DDOT":0},{"OBJECT_NAME":"STARLINK-6033","OBJECT_ID":"2023-058F","EPOCH":"2026-01-03T22:56:18.655872","MEAN_MOTION":15.01261378,"ECCENTRICITY":0.000164,"INCLINATION":97.6067,"RA_OF_ASC_NODE":6.7585,"ARG_OF_PERICENTER":83.9739,"MEAN_ANOMALY":276.1673,"EPHEMERIS_TYPE":0,"CLASSIFICATION_TYPE":"U","NORAD_CAT_ID":56322,"ELEMENT_SET_NO":999,"REV_AT_EPOCH":14806,"BSTAR":3.578e-5,"MEAN_MOTION_DOT":4.01e-6,"MEAN_MOTION_DDOT":0},{"OBJECT_NAME":"STARLINK-6035","OBJECT_ID":"2023-058G","EPOCH":"2026-01-04T06:45:32.385312","MEAN_MOTION":15.01262485,"ECCENTRICITY":0.00020792,"INCLINATION":97.6056,"RA_OF_ASC_NODE":7.1006,"ARG_OF_PERICENTER":86.048,"MEAN_ANOMALY":274.0982,"EPHEMERIS_TYPE":0,"CLASSIFICATION_TYPE":"U","NORAD_CAT_ID":56323,"ELEMENT_SET_NO":999,"REV_AT_EPOCH":14810,"BSTAR":5.1699106e-5,"MEAN_MOTION_DOT":6.06e-6,"MEAN_MOTION_DDOT":0},{"OBJECT_NAME":"STARLINK-6034","OBJECT_ID":"2023-058H","EPOCH":"2026-01-04T05:42:51.190272","MEAN_MOTION":15.05655714,"ECCENTRICITY":0.00016369,"INCLINATION":97.6038,"RA_OF_ASC_NODE":7.7572,"ARG_OF_PERICENTER":86.0482,"MEAN_ANOMALY":274.0931,"EPHEMERIS_TYPE":0,"CLASSIFICATION_TYPE":"U","NORAD_CAT_ID":56324,"ELEMENT_SET_NO":999,"REV_AT_EPOCH":14815,"BSTAR":0.00011782868,"MEAN_MOTION_DOT":1.64e-5,"MEAN_MOTION_DDOT":0}]
