STARLINK-30109          
1 56298U 23056N   26004.22105117  .00001348  00000+0  11489-3 0  9998
2 56298  43.0036 200.7264 0001120 270.8241  89.2473 15.02524297150384
STARLINK-30108          
1 56299U 23056P   26003.85573668  .00001334  00000+0  11376-3 0  9997
2 56299  43.0033 190.1468 0001194 266.2261  93.8445 15.02542919150473
STARLINK-30104          
1 56300U 23056Q   26004.24092159  .00000173  00000+0  27892-4 0  9996
2 56300  43.0028 200.0975 0000898 273.8415  86.2325 15.02536062150395
STARLINK-30101          
1 56301U 23056R   26003.93849578  .00001413  00000+0  11967-3 0  9990
2 56301  43.0032 202.1093 0001146 267.6111  92.4600 15.02536144150347
STARLINK-30111          
1 56302U 23056S   26003.93182153  .00000794  00000+0  73810-4 0  9997
2 56302  43.0030 201.9932 0001104 265.6462  94.4254 15.02540865150348
STARLINK-30099          
1 56304U 23056U   26003.92851801  .00005118  00000+0  39373-3 0  9991
2 56304  43.0013 201.9572 0001449 263.7870  96.2807 15.02531409150343
STARLINK-30094          
1 56305U 23056V   26004.25755660  .00000343  00000+0  40434-4 0  9991
2 56305  43.0054 200.1156 0000979 269.8968  90.1762 15.02535084150391
STARLINK-30112          
1 56306U 23056W   26003.93515528 -.00003038  00000+0 -20989-3 0  9991
2 56306  43.0030 202.0168 0001451 226.9681 133.1040 15.02533686150340
STARLINK-6038           
1 56317U 23058A   26004.26854590  .00000320  00000+0  26393-4 0  9992
2 56317  97.6050   7.7182 0002038  86.5132 273.6328 15.05645744148155
STARLINK-5954           
1 56318U 23058B   26004.24086050 -.00000030  00000+0  21320-5 0  9994
2 56318  97.6043   7.7537 0001763  84.0253 276.1174 15.05645306148154
STARLINK-6039           
1 56319U 23058C   26004.28532985  .00000359  00000+0  32471-4 0  9993
2 56319  97.6067   7.0936 0001491  91.7307 268.4089 15.01260424148115
STARLINK-5988           
1 56320U 23058D   26003.95786635 -.00002337  00000+0 -17744-3 0  9996
2 56320  97.6068   6.7532 0001711  82.3908 277.7511 15.01272885148076
STARLINK-5876           
1 56321U 23058E   26004.25193539 -.00115040  00000+0 -81085-2 0  9990
2 56321  97.6018   7.7365 0002612  92.9859 267.1667 15.05597857148157
STARLINK-6033           
1 56322U 23058F   26003.95577148  .00000401  00000+0  35780-4 0  9994
2 56322  97.6067   6.7585 0001640  83.9739 276.1673 15.01261378148061
STARLINK-6035           
1 56323U 23058G   26004.28162483  .00000606  00000+0  51699-4 0  9998
2 56323  97.6056   7.1006 0002079  86.0480 274.0982 15.01262485148102
STARLINK-6034           
1 56324U 23058H   26004.23809248  .00001640  00000+0  11783-3 0  9999
2 56324  97.6038   7.7572 0001636  86.0482 274.0931 15.05655714148151
